{
  "norad_id": 69007,
  "name": "CAS500-2 RIDESHARE OBJECT AD",
  "history": [
    {
      "epoch": "2026-05-09T14:05:01.402656Z",
      "apogee_km": 509.3847614195165,
      "perigee_km": 501.6901900905186,
      "latitude_deg": 2.5220059246671485e-05,
      "longitude_deg": -50.554911770656865,
      "height_km": 511.558904522182,
      "semi_major_axis_km": 6883.674475755018,
      "eccentricity": 0.0005589,
      "inclination_deg": 97.408,
      "raan_deg": 28.1032,
      "arg_perigee_deg": 139.756,
      "mean_anomaly_deg": 220.409,
      "mean_motion_rev_day": 15.20100406
    }
  ]
}