CAS500-2 RIDESHARE OBJE*
1 69007U 26100AD  26129.58682179  .00001956  00000+0  93669-4 0  9994
2 69007  97.4080  28.1032 0005589 139.7560 220.4090 15.20100406   945
